{
  "type": "FeatureCollection",
  "features": [
    {
      "type": "Feature",
      "properties": {
        "norad_id": 66495,
        "name": "STARLINK-35832",
        "group": "last-30-days",
        "lat": 17.35405078950794,
        "lon": -173.47830669898372,
        "alt_km": 378.6483007730876,
        "timestamp": "2025-12-05T14:45:14.101277+00:00",
        "meta_object_name": "STARLINK-35832",
        "meta_object_id": "2025-263L",
        "meta_epoch": "2025-12-04T18:00:02.000160",
        "meta_mean_motion": 15.66050578,
        "meta_eccentricity": 0.0001265,
        "meta_inclination": 42.9988,
        "meta_ra_of_asc_node": 172.089,
        "meta_arg_of_pericenter": 268.8367,
        "meta_mean_anomaly": 282.0511,
        "meta_ephemeris_type": 0,
        "meta_classification_type": "U",
        "meta_norad_cat_id": 66495,
        "meta_element_set_no": 999,
        "meta_rev_at_epoch": 435,
        "meta_bstar": -0.021957,
        "meta_mean_motion_dot": -0.02031382,
        "meta_mean_motion_ddot": 0,
        "tle_line1": "1 66495U 25263L   25338.75002315 -.02031382  00000+0 -21957-1 0  9997",
        "tle_line2": "2 66495  42.9988 172.0890 0001265 268.8367 282.0511 15.66050578  4357"
      },
      "geometry": {
        "type": "Point",
        "coordinates": [
          -173.47830669898372,
          17.35405078950794
        ]
      }
    },
    {
      "type": "Feature",
      "properties": {
        "norad_id": 66496,
        "name": "STARLINK-35909",
        "group": "last-30-days",
        "lat": 18.577900359021665,
        "lon": -171.93466165048426,
        "alt_km": 378.5190304911166,
        "timestamp": "2025-12-05T14:45:14.101286+00:00",
        "meta_object_name": "STARLINK-35909",
        "meta_object_id": "2025-263M",
        "meta_epoch": "2025-12-04T18:00:02.000160",
        "meta_mean_motion": 15.66052735,
        "meta_eccentricity": 0.0001325,
        "meta_inclination": 42.9987,
        "meta_ra_of_asc_node": 172.0841,
        "meta_arg_of_pericenter": 268.9206,
        "meta_mean_anomaly": 283.8821,
        "meta_ephemeris_type": 0,
        "meta_classification_type": "U",
        "meta_norad_cat_id": 66496,
        "meta_element_set_no": 999,
        "meta_rev_at_epoch": 435,
        "meta_bstar": -0.021988,
        "meta_mean_motion_dot": -0.02034116,
        "meta_mean_motion_ddot": 0,
        "tle_line1": "1 66496U 25263M   25338.75002315 -.02034116  00000+0 -21988-1 0  9990",
        "tle_line2": "2 66496  42.9987 172.0841 0001325 268.9206 283.8821 15.66052735  4353"
      },
      "geometry": {
        "type": "Point",
        "coordinates": [
          -171.93466165048426,
          18.577900359021665
        ]
      }
    },
    {
      "type": "Feature",
      "properties": {
        "norad_id": 66497,
        "name": "STARLINK-35899",
        "group": "last-30-days",
        "lat": 19.79378249116322,
        "lon": -170.363023149876,
        "alt_km": 378.4215271373441,
        "timestamp": "2025-12-05T14:45:14.101296+00:00",
        "meta_object_name": "STARLINK-35899",
        "meta_object_id": "2025-263N",
        "meta_epoch": "2025-12-04T18:00:02.000160",
        "meta_mean_motion": 15.66052195,
        "meta_eccentricity": 0.0001302,
        "meta_inclination": 42.9988,
        "meta_ra_of_asc_node": 172.0787,
        "meta_arg_of_pericenter": 266.4204,
        "meta_mean_anomaly": 288.2992,
        "meta_ephemeris_type": 0,
        "meta_classification_type": "U",
        "meta_norad_cat_id": 66497,
        "meta_element_set_no": 999,
        "meta_rev_at_epoch": 435,
        "meta_bstar": -0.021961,
        "meta_mean_motion_dot": -0.02031849,
        "meta_mean_motion_ddot": 0,
        "tle_line1": "1 66497U 25263N   25338.75002315 -.02031849  00000+0 -21961-1 0  9992",
        "tle_line2": "2 66497  42.9988 172.0787 0001302 266.4204 288.2992 15.66052195  4358"
      },
      "geometry": {
        "type": "Point",
        "coordinates": [
          -170.363023149876,
          19.79378249116322
        ]
      }
    },
    {
      "type": "Feature",
      "properties": {
        "norad_id": 66498,
        "name": "STARLINK-35907",
        "group": "last-30-days",
        "lat": 20.990470246372993,
        "lon": -168.77322756181016,
        "alt_km": 378.2107411268462,
        "timestamp": "2025-12-05T14:45:14.101320+00:00",
        "meta_object_name": "STARLINK-35907",
        "meta_object_id": "2025-263P",
        "meta_epoch": "2025-12-04T18:00:02.000160",
        "meta_mean_motion": 15.66051892,
        "meta_eccentricity": 0.0001316,
        "meta_inclination": 42.9987,
        "meta_ra_of_asc_node": 172.0741,
        "meta_arg_of_pericenter": 268.7893,
        "meta_mean_anomaly": 287.8483,
        "meta_ephemeris_type": 0,
        "meta_classification_type": "U",
        "meta_norad_cat_id": 66498,
        "meta_element_set_no": 999,
        "meta_rev_at_epoch": 435,
        "meta_bstar": -0.021979,
        "meta_mean_motion_dot": -0.02033287,
        "meta_mean_motion_ddot": 0,
        "tle_line1": "1 66498U 25263P   25338.75002315 -.02033287  00000+0 -21979-1 0  9990",
        "tle_line2": "2 66498  42.9987 172.0741 0001316 268.7893 287.8483 15.66051892  4355"
      },
      "geometry": {
        "type": "Point",
        "coordinates": [
          -168.77322756181016,
          20.990470246372993
        ]
      }
    },
    {
      "type": "Feature",
      "properties": {
        "norad_id": 66499,
        "name": "STARLINK-35816",
        "group": "last-30-days",
        "lat": 23.34306499757919,
        "lon": -165.50745987538104,
        "alt_km": 377.9694565116688,
        "timestamp": "2025-12-05T14:45:14.101331+00:00",
        "meta_object_name": "STARLINK-35816",
        "meta_object_id": "2025-263Q",
        "meta_epoch": "2025-12-04T18:00:02.000160",
        "meta_mean_motion": 15.6605202,
        "meta_eccentricity": 0.0001265,
        "meta_inclination": 42.9987,
        "meta_ra_of_asc_node": 172.0647,
        "meta_arg_of_pericenter": 265.7019,
        "meta_mean_anomaly": 294.7696,
        "meta_ephemeris_type": 0,
        "meta_classification_type": "U",
        "meta_norad_cat_id": 66499,
        "meta_element_set_no": 999,
        "meta_rev_at_epoch": 435,
        "meta_bstar": -0.021969,
        "meta_mean_motion_dot": -0.02032471,
        "meta_mean_motion_ddot": 0,
        "tle_line1": "1 66499U 25263Q   25338.75002315 -.02032471  00000+0 -21969-1 0  9994",
        "tle_line2": "2 66499  42.9987 172.0647 0001265 265.7019 294.7696 15.66052020  4358"
      },
      "geometry": {
        "type": "Point",
        "coordinates": [
          -165.50745987538104,
          23.34306499757919
        ]
      }
    },
    {
      "type": "Feature",
      "properties": {
        "norad_id": 66500,
        "name": "STARLINK-35894",
        "group": "last-30-days",
        "lat": 12.666768156986508,
        "lon": -179.09843631444647,
        "alt_km": 387.5248780287475,
        "timestamp": "2025-12-05T14:45:14.101341+00:00",
        "meta_object_name": "STARLINK-35894",
        "meta_object_id": "2025-263R",
        "meta_epoch": "2025-12-04T18:00:02.000160",
        "meta_mean_motion": 15.6400684,
        "meta_eccentricity": 0.0001096,
        "meta_inclination": 42.9987,
        "meta_ra_of_asc_node": 172.0872,
        "meta_arg_of_pericenter": 266.8038,
        "meta_mean_anomaly": 284.6438,
        "meta_ephemeris_type": 0,
        "meta_classification_type": "U",
        "meta_norad_cat_id": 66500,
        "meta_element_set_no": 999,
        "meta_rev_at_epoch": 435,
        "meta_bstar": -0.029592,
        "meta_mean_motion_dot": -0.02503403,
        "meta_mean_motion_ddot": 0,
        "tle_line1": "1 66500U 25263R   25338.75002315 -.02503403  00000+0 -29592-1 0  9995",
        "tle_line2": "2 66500  42.9987 172.0872 0001096 266.8038 284.6438 15.64006840  4355"
      },
      "geometry": {
        "type": "Point",
        "coordinates": [
          -179.09843631444647,
          12.666768156986508
        ]
      }
    },
    {
      "type": "Feature",
      "properties": {
        "norad_id": 66501,
        "name": "STARLINK-35897",
        "group": "last-30-days",
        "lat": 24.493024374222866,
        "lon": -163.83297924787786,
        "alt_km": 377.77257585405005,
        "timestamp": "2025-12-05T14:45:14.101351+00:00",
        "meta_object_name": "STARLINK-35897",
        "meta_object_id": "2025-263S",
        "meta_epoch": "2025-12-04T18:00:02.000160",
        "meta_mean_motion": 15.66052401,
        "meta_eccentricity": 0.0001301,
        "meta_inclination": 42.9988,
        "meta_ra_of_asc_node": 172.0597,
        "meta_arg_of_pericenter": 268.0368,
        "meta_mean_anomaly": 294.3519,
        "meta_ephemeris_type": 0,
        "meta_classification_type": "U",
        "meta_norad_cat_id": 66501,
        "meta_element_set_no": 999,
        "meta_rev_at_epoch": 435,
        "meta_bstar": -0.021979,
        "meta_mean_motion_dot": -0.02033359,
        "meta_mean_motion_ddot": 0,
        "tle_line1": "1 66501U 25263S   25338.75002315 -.02033359  00000+0 -21979-1 0  9995",
        "tle_line2": "2 66501  42.9988 172.0597 0001301 268.0368 294.3519 15.66052401  4354"
      },
      "geometry": {
        "type": "Point",
        "coordinates": [
          -163.83297924787786,
          24.493024374222866
        ]
      }
    }
  ]
}